[{"OBJECT_NAME":"STARLINK-34913","OBJECT_ID":"2025-190U","EPOCH":"2026-03-09T13:16:23.957184","MEAN_MOTION":15.30195064,"ECCENTRICITY":8.454e-5,"INCLINATION":53.1587,"RA_OF_ASC_NODE":168.8554,"ARG_OF_PERICENTER":80.8012,"MEAN_ANOMALY":279.3084,"EPHEMERIS_TYPE":0,"CLASSIFICATION_TYPE":"U","NORAD_CAT_ID":65369,"ELEMENT_SET_NO":999,"REV_AT_EPOCH":2973,"BSTAR":0.0009006158,"MEAN_MOTION_DOT":0.00026405,"MEAN_MOTION_DDOT":0},{"OBJECT_NAME":"TRANSPORTER-1 OBJECT L","OBJECT_ID":"2021-006L","EPOCH":"2026-03-09T22:38:42.795168","MEAN_MOTION":15.33192932,"ECCENTRICITY":0.00114726,"INCLINATION":97.2368,"RA_OF_ASC_NODE":117.6447,"ARG_OF_PERICENTER":180.5165,"MEAN_ANOMALY":179.6068,"EPHEMERIS_TYPE":0,"CLASSIFICATION_TYPE":"U","NORAD_CAT_ID":47423,"ELEMENT_SET_NO":999,"REV_AT_EPOCH":28445,"BSTAR":0.00025636794,"MEAN_MOTION_DOT":8.162e-5,"MEAN_MOTION_DDOT":0}]
